start=new Date('2023-01-23T00:00:00.000Z').valueOf();
sats=[{"RCS_SIZE":"LARGE","PERIOD":"95.438","RA_OF_ASC_NODE":"255.6161","COUNTRY_CODE":"US","OBJECT_ID":"2022-001S","REV_AT_EPOCH":"5921","PERIAPSIS":"538.730","SITE":"AFETR","MEAN_MOTION_DOT":"-0.00003970","EPHEMERIS_TYPE":"0","APOAPSIS":"540.800","DECAY_DATE":null,"OBJECT_TYPE":"PAYLOAD","TIME_SYSTEM":"UTC","TLE_LINE1":"1 50819U 22001S   23022.72389174 -.00003970  00000-0 -23149-3 0  9991","OBJECT_NAME":"STARLINK-3327","FILE":"3758190","ECCENTRICITY":"0.00014960","GP_ID":"223600137","MEAN_MOTION":"15.08833481","MEAN_ANOMALY":"259.1542","ELEMENT_SET_NO":"999","LAUNCH_DATE":"2022-01-06","BSTAR":"-0.00023149000000","ARG_OF_PERICENTER":"100.9619","REF_FRAME":"TEME","CLASSIFICATION_TYPE":"U","NORAD_CAT_ID":"50819","MEAN_MOTION_DDOT":"0.0000000000000","CENTER_NAME":"EARTH","SEMIMAJOR_AXIS":"6917.900","TLE_LINE2":"2 50819  53.2116 255.6161 0001496 100.9619 259.1542 15.08833481 59211","MEAN_ELEMENT_THEORY":"SGP4","EPOCH":"2023-01-22T17:22:24.246336","INCLINATION":"53.2116"},{"OBJECT_TYPE":"PAYLOAD","TIME_SYSTEM":"UTC","DECAY_DATE":null,"APOAPSIS":"540.695","EPHEMERIS_TYPE":"0","MEAN_MOTION_DOT":"0.00015483","SITE":"AFETR","OBJECT_NAME":"STARLINK-3339","TLE_LINE1":"1 50820U 22001T   23022.77173774  .00015483  00000-0  98904-3 0  9996","RCS_SIZE":"LARGE","PERIAPSIS":"538.859","REV_AT_EPOCH":"5929","OBJECT_ID":"2022-001T","COUNTRY_CODE":"US","RA_OF_ASC_NODE":"255.3945","PERIOD":"95.438","NORAD_CAT_ID":"50820","CLASSIFICATION_TYPE":"U","REF_FRAME":"TEME","ARG_OF_PERICENTER":"77.4649","BSTAR":"0.00098904000000","LAUNCH_DATE":"2022-01-06","INCLINATION":"53.2129","EPOCH":"2023-01-22T18:31:18.140736","TLE_LINE2":"2 50820  53.2129 255.3945 0001327  77.4649 282.6492 15.08829777 59294","SEMIMAJOR_AXIS":"6917.912","MEAN_ELEMENT_THEORY":"SGP4","CENTER_NAME":"EARTH","MEAN_MOTION_DDOT":"0.0000000000000","FILE":"3758188","ELEMENT_SET_NO":"999","MEAN_ANOMALY":"282.6492","GP_ID":"223600157","ECCENTRICITY":"0.00013270","MEAN_MOTION":"15.08829777"},{"ELEMENT_SET_NO":"999","MEAN_ANOMALY":"262.9191","GP_ID":"223593964","MEAN_MOTION":"15.08838132","ECCENTRICITY":"0.00013660","FILE":"3757908","CENTER_NAME":"EARTH","MEAN_MOTION_DDOT":"0.0000000000000","INCLINATION":"53.2136","TLE_LINE2":"2 50821  53.2136 257.2342 0001366  97.1956 262.9191 15.08838132 59201","SEMIMAJOR_AXIS":"6917.886","EPOCH":"2023-01-22T08:37:47.138304","MEAN_ELEMENT_THEORY":"SGP4","REF_FRAME":"TEME","BSTAR":"-0.00013819000000","ARG_OF_PERICENTER":"97.1956","LAUNCH_DATE":"2022-01-06","NORAD_CAT_ID":"50821","CLASSIFICATION_TYPE":"U","COUNTRY_CODE":"US","PERIOD":"95.438","RA_OF_ASC_NODE":"257.2342","PERIAPSIS":"538.806","REV_AT_EPOCH":"5920","OBJECT_ID":"2022-001U","RCS_SIZE":"LARGE","OBJECT_NAME":"STARLINK-3346","TLE_LINE1":"1 50821U 22001U   23022.35957336 -.00002486  00000-0 -13819-3 0  9998","EPHEMERIS_TYPE":"0","APOAPSIS":"540.696","SITE":"AFETR","MEAN_MOTION_DOT":"-0.00002486","TIME_SYSTEM":"UTC","OBJECT_TYPE":"PAYLOAD","DECAY_DATE":null},{"FILE":"3757705","MEAN_ANOMALY":"285.5142","MEAN_MOTION":"15.08820491","GP_ID":"223589683","ECCENTRICITY":"0.00012680","ELEMENT_SET_NO":"999","NORAD_CAT_ID":"50822","CLASSIFICATION_TYPE":"U","BSTAR":"-0.00000165640000","ARG_OF_PERICENTER":"74.5991","LAUNCH_DATE":"2022-01-06","REF_FRAME":"TEME","INCLINATION":"53.2131","SEMIMAJOR_AXIS":"6917.940","TLE_LINE2":"2 50822  53.2131 257.2142 0001268  74.5991 285.5142 15.08820491 59200","MEAN_ELEMENT_THEORY":"SGP4","EPOCH":"2023-01-22T08:48:24.335712","MEAN_MOTION_DDOT":"0.0000000000000","CENTER_NAME":"EARTH","RCS_SIZE":"LARGE","REV_AT_EPOCH":"5920","OBJECT_ID":"2022-001V","PERIAPSIS":"538.928","RA_OF_ASC_NODE":"257.2142","PERIOD":"95.439","COUNTRY_CODE":"US","DECAY_DATE":null,"TIME_SYSTEM":"UTC","OBJECT_TYPE":"PAYLOAD","APOAPSIS":"540.682","EPHEMERIS_TYPE":"0","MEAN_MOTION_DOT":"-0.00000314","SITE":"AFETR","OBJECT_NAME":"STARLINK-3343","TLE_LINE1":"1 50822U 22001V   23022.36694833 -.00000314  00000-0 -16564-5 0  9990"},{"GP_ID":"223600667","ECCENTRICITY":"0.00016410","MEAN_MOTION":"15.08854346","MEAN_ANOMALY":"277.9469","ELEMENT_SET_NO":"999","FILE":"3758206","TLE_LINE2":"2 50823  53.2131 255.8770 0001641  82.1709 277.9469 15.08854346 59280","SEMIMAJOR_AXIS":"6917.837","EPOCH":"2023-01-22T15:57:37.294272","MEAN_ELEMENT_THEORY":"SGP4","INCLINATION":"53.2131","MEAN_MOTION_DDOT":"0.0000000000000","CENTER_NAME":"EARTH","NORAD_CAT_ID":"50823","CLASSIFICATION_TYPE":"U","LAUNCH_DATE":"2022-01-06","BSTAR":"0.00037510000000","ARG_OF_PERICENTER":"82.1709","REF_FRAME":"TEME","OBJECT_ID":"2022-001W","REV_AT_EPOCH":"5928","PERIAPSIS":"538.566","PERIOD":"95.437","RA_OF_ASC_NODE":"255.8770","COUNTRY_CODE":"US","RCS_SIZE":"LARGE","TLE_LINE1":"1 50823U 22001W   23022.66501498  .00005689  00000-0  37510-3 0  9998","OBJECT_NAME":"STARLINK-3334","DECAY_DATE":null,"TIME_SYSTEM":"UTC","OBJECT_TYPE":"PAYLOAD","MEAN_MOTION_DOT":"0.00005689","SITE":"AFETR","APOAPSIS":"540.837","EPHEMERIS_TYPE":"0"},{"LAUNCH_DATE":"2022-01-06","BSTAR":"-0.00003455200000","ARG_OF_PERICENTER":"97.5870","REF_FRAME":"TEME","NORAD_CAT_ID":"50824","CLASSIFICATION_TYPE":"U","MEAN_MOTION_DDOT":"0.0000000000000","CENTER_NAME":"EARTH","SEMIMAJOR_AXIS":"6917.900","TLE_LINE2":"2 50824  53.2127 255.4534 0001204  97.5870 262.5259 15.08833567 59283","EPOCH":"2023-01-22T18:15:24.262272","MEAN_ELEMENT_THEORY":"SGP4","INCLINATION":"53.2127","FILE":"3758206","ECCENTRICITY":"0.00012040","GP_ID":"223600669","MEAN_MOTION":"15.08833567","MEAN_ANOMALY":"262.5259","ELEMENT_SET_NO":"999","SITE":"AFETR","MEAN_MOTION_DOT":"-0.00000838","APOAPSIS":"540.598","EPHEMERIS_TYPE":"0","DECAY_DATE":null,"TIME_SYSTEM":"UTC","OBJECT_TYPE":"PAYLOAD","TLE_LINE1":"1 50824U 22001X   23022.76069748 -.00000838  00000-0 -34552-4 0  9994","OBJECT_NAME":"STARLINK-3340","RCS_SIZE":"LARGE","PERIOD":"95.438","RA_OF_ASC_NODE":"255.4534","COUNTRY_CODE":"US","OBJECT_ID":"2022-001X","REV_AT_EPOCH":"5928","PERIAPSIS":"538.932"},{"SITE":"AFETR","MEAN_MOTION_DOT":"0.00019150","EPHEMERIS_TYPE":"0","APOAPSIS":"539.933","DECAY_DATE":null,"TIME_SYSTEM":"UTC","OBJECT_TYPE":"PAYLOAD","TLE_LINE1":"1 50825U 22001Y   23022.37060670  .00019150  00000-0  12173-2 0  9995","OBJECT_NAME":"STARLINK-3332","RCS_SIZE":"LARGE","PERIOD":"95.436","RA_OF_ASC_NODE":"257.1943","COUNTRY_CODE":"US","OBJECT_ID":"2022-001Y","REV_AT_EPOCH":"5922","PERIAPSIS":"539.422","LAUNCH_DATE":"2022-01-06","ARG_OF_PERICENTER":"233.8658","BSTAR":"0.00121730000000","REF_FRAME":"TEME","NORAD_CAT_ID":"50825","CLASSIFICATION_TYPE":"U","MEAN_MOTION_DDOT":"0.0000000000000","CENTER_NAME":"EARTH","TLE_LINE2":"2 50825  53.2135 257.1943 0000369 233.8658 126.2300 15.08862234 59226","SEMIMAJOR_AXIS":"6917.812","EPOCH":"2023-01-22T08:53:40.418880","MEAN_ELEMENT_THEORY":"SGP4","INCLINATION":"53.2135","FILE":"3757900","MEAN_MOTION":"15.08862234","GP_ID":"223594345","ECCENTRICITY":"0.00003690","MEAN_ANOMALY":"126.2300","ELEMENT_SET_NO":"999"},{"ELEMENT_SET_NO":"999","MEAN_ANOMALY":"270.1149","GP_ID":"223593986","MEAN_MOTION":"15.08850024","ECCENTRICITY":"0.00014480","FILE":"3757900","INCLINATION":"53.2159","TLE_LINE2":"2 50826  53.2159 257.2900 0001448  90.0009 270.1149 15.08850024 59234","SEMIMAJOR_AXIS":"6917.850","EPOCH":"2023-01-22T08:21:53.123328","MEAN_ELEMENT_THEORY":"SGP4","CENTER_NAME":"EARTH","MEAN_MOTION_DDOT":"0.0000000000000","NORAD_CAT_ID":"50826","CLASSIFICATION_TYPE":"U","REF_FRAME":"TEME","ARG_OF_PERICENTER":"90.0009","BSTAR":"0.00022169000000","LAUNCH_DATE":"2022-01-06","PERIAPSIS":"538.713","REV_AT_EPOCH":"5923","OBJECT_ID":"2022-001Z","COUNTRY_CODE":"US","RA_OF_ASC_NODE":"257.2900","PERIOD":"95.437","RCS_SIZE":"LARGE","OBJECT_NAME":"STARLINK-3337","TLE_LINE1":"1 50826U 22001Z   23022.34853152  .00003243  00000-0  22169-3 0  9991","TIME_SYSTEM":"UTC","OBJECT_TYPE":"PAYLOAD","DECAY_DATE":null,"EPHEMERIS_TYPE":"0","APOAPSIS":"540.716","SITE":"AFETR","MEAN_MOTION_DOT":"0.00003243"},{"DECAY_DATE":null,"OBJECT_TYPE":"PAYLOAD","TIME_SYSTEM":"UTC","MEAN_MOTION_DOT":"0.00010867","SITE":"AFETR","EPHEMERIS_TYPE":"0","APOAPSIS":"540.544","TLE_LINE1":"1 50827U 22001AA  23022.38165213  .00010867  00000-0  69942-3 0  9990","OBJECT_NAME":"STARLINK-3329","RCS_SIZE":"LARGE","OBJECT_ID":"2022-001AA","REV_AT_EPOCH":"5922","PERIAPSIS":"538.824","RA_OF_ASC_NODE":"257.1441","PERIOD":"95.436","COUNTRY_CODE":"US","CLASSIFICATION_TYPE":"U","NORAD_CAT_ID":"50827","LAUNCH_DATE":"2022-01-06","ARG_OF_PERICENTER":"79.7932","BSTAR":"0.00069942000000","REF_FRAME":"TEME","EPOCH":"2023-01-22T09:09:34.744032","TLE_LINE2":"2 50827  53.2141 257.1441 0001243  79.7932 280.3200 15.08860093 59224","SEMIMAJOR_AXIS":"6917.819","MEAN_ELEMENT_THEORY":"SGP4","INCLINATION":"53.2141","MEAN_MOTION_DDOT":"0.0000000000000","CENTER_NAME":"EARTH","FILE":"3757775","MEAN_MOTION":"15.08860093","GP_ID":"223591197","ECCENTRICITY":"0.00012430","MEAN_ANOMALY":"280.3200","ELEMENT_SET_NO":"999"},{"RCS_SIZE":"LARGE","OBJECT_ID":"2022-001AB","REV_AT_EPOCH":"5927","PERIAPSIS":"538.615","RA_OF_ASC_NODE":"255.9735","PERIOD":"95.437","COUNTRY_CODE":"US","DECAY_DATE":null,"TIME_SYSTEM":"UTC","OBJECT_TYPE":"PAYLOAD","SITE":"AFETR","MEAN_MOTION_DOT":"0.00000785","APOAPSIS":"540.864","EPHEMERIS_TYPE":"0","TLE_LINE1":"1 50828U 22001AB  23022.64389141  .00000785  00000-0  67384-4 0  9995","OBJECT_NAME":"STARLINK-3290","FILE":"3758192","ECCENTRICITY":"0.00016260","GP_ID":"223600183","MEAN_MOTION":"15.08841897","MEAN_ANOMALY":"275.5963","ELEMENT_SET_NO":"999","NORAD_CAT_ID":"50828","CLASSIFICATION_TYPE":"U","LAUNCH_DATE":"2022-01-06","ARG_OF_PERICENTER":"84.5215","BSTAR":"0.00006738400000","REF_FRAME":"TEME","EPOCH":"2023-01-22T15:27:12.217824","TLE_LINE2":"2 50828  53.2120 255.9735 0001626  84.5215 275.5963 15.08841897 59275","SEMIMAJOR_AXIS":"6917.875","MEAN_ELEMENT_THEORY":"SGP4","INCLINATION":"53.2120","MEAN_MOTION_DDOT":"0.0000000000000","CENTER_NAME":"EARTH"}];
